IRIDIUM 166             
1 43570U 18061B   24327.82109311  .00000262  00000+0  86315-4 0  9994
2 43570  86.3934 295.4989 0002159  80.7435 279.4004 14.34218618331500
IRIDIUM 158             
1 43571U 18061C   24328.27775967  .00000240  00000+0  78501-4 0  9995
2 43571  86.3935 295.3175 0002434  82.4622 277.6850 14.34219072331549
IRIDIUM 165             
1 43572U 18061D   24328.37289832  .00000332  00000+0  11141-3 0  9996
2 43572  86.3936 295.3131 0002154  88.1508 271.9934 14.34219349331578
IRIDIUM 155             
1 43573U 18061E   24327.84646374  .00000349  00000+0  11764-3 0  9995
2 43573  86.3936 295.4284 0002313  79.9579 280.1878 14.34218849331463
IRIDIUM 154             
1 43574U 18061F   24328.38558416  .00000233  00000+0  76041-4 0  9997
2 43574  86.3936 295.3104 0002247  89.4743 270.6710 14.34218394331597
IRIDIUM 163             
1 43575U 18061G   24327.45956323  .00000668  00000+0  23129-3 0  9994
2 43575  86.3931 295.6316 0002478  86.4118 273.7362 14.34221406331438
IRIDIUM 156             
1 43576U 18061H   24327.43419446  .00000078  00000+0  20657-4 0  9992
2 43576  86.3929 295.6487 0002216  77.5316 282.6128 14.34217647331426
IRIDIUM 164             
1 43577U 18061J   24328.32215715  .00000266  00000+0  87934-4 0  9995
2 43577  86.3935 295.3081 0002002  86.9478 273.1947 14.34218600331599
